IRIDIUM 144             
1 43249U 18030A   25040.17647479  .00000425  00000+0  14472-3 0  9991
2 43249  86.4008 136.5306 0002189  95.4267 264.7178 14.34217061359491
IRIDIUM 149             
1 43250U 18030B   25040.18281492  .00000266  00000+0  87842-4 0  9998
2 43250  86.4006 136.5007 0002184  92.1195 268.0250 14.34216666359496
IRIDIUM 157             
1 43251U 18030C   25039.78323463  .00000240  00000+0  78662-4 0  9990
2 43251  86.4011 136.7098 0001850  96.7542 263.3865 14.34219013359411
IRIDIUM 140             
1 43252U 18030D   25039.80226196  .00000616  00000+0  21304-3 0  9996
2 43252  86.4010 136.7159 0002252  97.5619 262.5833 14.34220041359475
IRIDIUM 145             
1 43253U 18030E   25039.99888209 -.00000298  00000+0 -11355-3 0  9999
2 43253  86.4008 136.6065 0002343  88.5560 271.5904 14.34216717359434
IRIDIUM 146             
1 43254U 18030F   25040.18916125  .00000246  00000+0  80849-4 0  9998
2 43254  86.4007 136.5413 0002534  91.0088 269.1398 14.34218667359476
IRIDIUM 148             
1 43255U 18030G   25039.73883648  .00000409  00000+0  13882-3 0  9994
2 43255  86.4009 136.7648 0002149  91.9434 268.2008 14.34218723359445
IRIDIUM 142             
1 43256U 18030H   25039.98619652  .00000348  00000+0  11716-3 0  9990
2 43256  86.4006 136.5686 0002400  87.2113 272.9357 14.34219593359440
